{
  "norad_id": 62752,
  "name": "STARLINK-32756",
  "history": [
    {
      "epoch": "2026-03-28T22:03:36.325152Z",
      "apogee_km": 483.728743329335,
      "perigee_km": 482.2294522396469,
      "latitude_deg": -5.9450156822575205e-05,
      "longitude_deg": -111.04672984401385,
      "height_km": 482.8674003179274,
      "semi_major_axis_km": 6861.11609778449,
      "eccentricity": 0.00010926,
      "inclination_deg": 43.0031,
      "raan_deg": 46.1874,
      "arg_perigee_deg": 261.4433,
      "mean_anomaly_deg": 98.6294,
      "mean_motion_rev_day": 15.27603377
    },
    {
      "epoch": "2026-03-29T04:20:13.577280Z",
      "apogee_km": 483.5985593013793,
      "perigee_km": 482.33062772689846,
      "latitude_deg": -3.0201521140743333e-05,
      "longitude_deg": 153.06449638032677,
      "height_km": 482.8115400421519,
      "semi_major_axis_km": 6861.101593514139,
      "eccentricity": 9.24e-05,
      "inclination_deg": 43.0031,
      "raan_deg": 44.7116,
      "arg_perigee_deg": 263.6313,
      "mean_anomaly_deg": 96.4433,
      "mean_motion_rev_day": 15.27608221
    },
    {
      "epoch": "2026-03-30T03:52:34.165056Z",
      "apogee_km": 483.1415522233674,
      "perigee_km": 482.67911763299435,
      "latitude_deg": 2.7463594960802746e-05,
      "longitude_deg": 153.47216155178785,
      "height_km": 482.8966219776901,
      "semi_major_axis_km": 6861.047334928181,
      "eccentricity": 3.37e-05,
      "inclination_deg": 43.003,
      "raan_deg": 39.1717,
      "arg_perigee_deg": 155.696,
      "mean_anomaly_deg": 204.3908,
      "mean_motion_rev_day": 15.27626342
    },
    {
      "epoch": "2026-03-30T05:26:43.435104Z",
      "apogee_km": 483.855039893032,
      "perigee_km": 482.042066646437,
      "latitude_deg": -1.9442702164903073e-06,
      "longitude_deg": 129.50015860302335,
      "height_km": 482.6331978836229,
      "semi_major_axis_km": 6861.085553269734,
      "eccentricity": 0.00013212,
      "inclination_deg": 43.0031,
      "raan_deg": 38.8028,
      "arg_perigee_deg": 275.8467,
      "mean_anomaly_deg": 84.2234,
      "mean_motion_rev_day": 15.27613578
    },
    {
      "epoch": "2026-03-30T13:17:30.880032Z",
      "apogee_km": 483.4655663539097,
      "perigee_km": 482.69326783400174,
      "latitude_deg": 1.7224273278595902e-05,
      "longitude_deg": 9.632347402890916,
      "height_km": 482.56715023120887,
      "semi_major_axis_km": 6861.216417093956,
      "eccentricity": 5.628e-05,
      "inclination_deg": 43.0044,
      "raan_deg": 36.9549,
      "arg_perigee_deg": 318.3587,
      "mean_anomaly_deg": 41.7222,
      "mean_motion_rev_day": 15.27569874
    },
    {
      "epoch": "2026-03-30T21:08:18.156480Z",
      "apogee_km": 483.3559380498291,
      "perigee_km": 482.74268521729664,
      "latitude_deg": 3.266151567534383e-05,
      "longitude_deg": -110.22996384979271,
      "height_km": 482.6004867281318,
      "semi_major_axis_km": 6861.186311633563,
      "eccentricity": 4.469e-05,
      "inclination_deg": 43.001,
      "raan_deg": 35.1118,
      "arg_perigee_deg": 43.0543,
      "mean_anomaly_deg": 317.0344,
      "mean_motion_rev_day": 15.27579928
    },
    {
      "epoch": "2026-03-31T12:49:51.943872Z",
      "apogee_km": 483.8407611679904,
      "perigee_km": 482.2392252342379,
      "latitude_deg": -1.1267630842235235e-05,
      "longitude_deg": 10.038932336886196,
      "height_km": 482.59469878160974,
      "semi_major_axis_km": 6861.176993201114,
      "eccentricity": 0.00011671,
      "inclination_deg": 43.0056,
      "raan_deg": 31.416,
      "arg_perigee_deg": 286.1262,
      "mean_anomaly_deg": 73.9461,
      "mean_motion_rev_day": 15.2758304
    },
    {
      "epoch": "2026-04-01T12:22:12.910080Z",
      "apogee_km": 484.42610461658023,
      "perigee_km": 481.57461592965046,
      "latitude_deg": -2.713491570425079e-05,
      "longitude_deg": 10.44833866249466,
      "height_km": 482.55310595989766,
      "semi_major_axis_km": 6861.137360273115,
      "eccentricity": 0.0002078,
      "inclination_deg": 42.9993,
      "raan_deg": 25.8795,
      "arg_perigee_deg": 279.0564,
      "mean_anomaly_deg": 81.0052,
      "mean_motion_rev_day": 15.27596276
    },
    {
      "epoch": "2026-04-02T11:54:33.293952Z",
      "apogee_km": 483.72433310144606,
      "perigee_km": 482.18978080466786,
      "latitude_deg": 4.872628465822862e-05,
      "longitude_deg": 10.85587549849211,
      "height_km": 482.4715808334208,
      "semi_major_axis_km": 6861.094056953057,
      "eccentricity": 0.00011183,
      "inclination_deg": 43.0082,
      "raan_deg": 20.3386,
      "arg_perigee_deg": 290.0317,
      "mean_anomaly_deg": 70.0415,
      "mean_motion_rev_day": 15.27610738
    },
    {
      "epoch": "2026-04-03T11:26:53.810880Z",
      "apogee_km": 483.40738887551197,
      "perigee_km": 482.7935825700397,
      "latitude_deg": -2.995435503490214e-05,
      "longitude_deg": 11.266091012421668,
      "height_km": 482.80315890267167,
      "semi_major_axis_km": 6861.237485722776,
      "eccentricity": 4.473e-05,
      "inclination_deg": 43.0043,
      "raan_deg": 14.8011,
      "arg_perigee_deg": 76.2832,
      "mean_anomaly_deg": 283.8069,
      "mean_motion_rev_day": 15.27562838
    }
  ]
}